<gpx xmlns:ns3="http://www.garmin.com/xmlschemas/TrackPointExtension/v1" xmlns="http://www.topografix.com/GPX/1/1" xmlns:xsi="http://www.w3.org/2001/XMLSchema-instance" xmlns:ns2="http://www.garmin.com/xmlschemas/GpxExtensions/v3" creator="Garmin Connect" version="1.1" xsi:schemaLocation="http://www.topografix.com/GPX/1/1 http://www.topografix.com/GPX/11.xsd">
  <extensions>
<distance>10105.5</distance>
<average_hr>149.0</average_hr>
<average_speed>3.0989999771118164</average_speed>
<start_time>2022-10-08T07:04:05+00:00</start_time>
<end_time>2022-10-08T07:58:25.918000+00:00</end_time>
<moving_time>3259.0</moving_time>
<elapsed_time>3450.906</elapsed_time>
</extensions>
<metadata>
    <link href="connect.garmin.com">
      <text>Garmin Connect</text>
    </link>
    <time>2022-10-08T07:04:05.000Z</time>
  </metadata>
  <trk>
    <name>跑步机上跑步</name>
    <type>treadmill_running</type>
    <trkseg/>
  </trk>
</gpx>
