<gpx xmlns:ns3="http://www.garmin.com/xmlschemas/TrackPointExtension/v1" xmlns="http://www.topografix.com/GPX/1/1" xmlns:xsi="http://www.w3.org/2001/XMLSchema-instance" xmlns:ns2="http://www.garmin.com/xmlschemas/GpxExtensions/v3" creator="Garmin Connect" version="1.1" xsi:schemaLocation="http://www.topografix.com/GPX/1/1 http://www.topografix.com/GPX/11.xsd">
  <extensions>
<distance>12124.23</distance>
<average_hr>136.0</average_hr>
<average_speed>3.9660000801086426</average_speed>
<start_time>2024-02-26T09:28:43+00:00</start_time>
<end_time>2024-02-26T10:19:39.960000+00:00</end_time>
<moving_time>3044.094</moving_time>
<elapsed_time>3186.283</elapsed_time>
</extensions>
<metadata>
    <link href="connect.garmin.com">
      <text>Garmin Connect</text>
    </link>
    <time>2024-02-26T09:28:43.000Z</time>
  </metadata>
  <trk>
    <name>跑步机上跑步</name>
    <type>treadmill_running</type>
    <trkseg/>
  </trk>
</gpx>
