<gpx xmlns:ns3="http://www.garmin.com/xmlschemas/TrackPointExtension/v1" xmlns="http://www.topografix.com/GPX/1/1" xmlns:xsi="http://www.w3.org/2001/XMLSchema-instance" xmlns:ns2="http://www.garmin.com/xmlschemas/GpxExtensions/v3" creator="Garmin Connect" version="1.1" xsi:schemaLocation="http://www.topografix.com/GPX/1/1 http://www.topografix.com/GPX/11.xsd">
  <extensions>
<distance>10104.0</distance>
<average_hr>156.0</average_hr>
<average_speed>3.9809999465942383</average_speed>
<start_time>2024-06-14T11:18:24+00:00</start_time>
<end_time>2024-06-14T12:00:42.122000+00:00</end_time>
<moving_time>2525.154</moving_time>
<elapsed_time>2555.301</elapsed_time>
</extensions>
<metadata>
    <link href="connect.garmin.com">
      <text>Garmin Connect</text>
    </link>
    <time>2024-06-14T11:18:24.000Z</time>
  </metadata>
  <trk>
    <name>跑步机</name>
    <type>treadmill_running</type>
    <trkseg/>
  </trk>
</gpx>
