<gpx xmlns:ns3="http://www.garmin.com/xmlschemas/TrackPointExtension/v1" xmlns="http://www.topografix.com/GPX/1/1" xmlns:xsi="http://www.w3.org/2001/XMLSchema-instance" xmlns:ns2="http://www.garmin.com/xmlschemas/GpxExtensions/v3" creator="Garmin Connect" version="1.1" xsi:schemaLocation="http://www.topografix.com/GPX/1/1 http://www.topografix.com/GPX/11.xsd">
  <extensions>
<distance>354.13</distance>
<average_hr>99.0</average_hr>
<average_speed>1.7335180435080573</average_speed>
<start_time>2016-03-05T09:54:09+00:00</start_time>
<end_time>2016-03-05T09:57:33.284000+00:00</end_time>
<moving_time>198.0</moving_time>
<elapsed_time>206.283</elapsed_time>
</extensions>
<metadata>
    <link href="connect.garmin.com">
      <text>Garmin Connect</text>
    </link>
    <time>2016-03-05T09:54:09.000Z</time>
  </metadata>
  <trk>
    <name>跑步</name>
    <type>running</type>
    <trkseg>
      <trkpt lat="29.15093782357871532440185546875" lon="120.3094857372343540191650390625">
        <ele>135.8000030517578125</ele>
        <time>2016-03-05T09:54:14.000Z</time>
        <extensions>
          <ns3:TrackPointExtension>
            <ns3:hr>70</ns3:hr>
            <ns3:cad>0</ns3:cad>
          </ns3:TrackPointExtension>
        </extensions>
      </trkpt>
      <trkpt lat="29.15094964206218719482421875" lon="120.3095202706754207611083984375">
        <ele>136</ele>
        <time>2016-03-05T09:54:16.000Z</time>
        <extensions>
          <ns3:TrackPointExtension>
            <ns3:hr>70</ns3:hr>
            <ns3:cad>0</ns3:cad>
          </ns3:TrackPointExtension>
        </extensions>
      </trkpt>
      <trkpt lat="29.1509461216628551483154296875" lon="120.3095454163849353790283203125">
        <ele>136.1999969482421875</ele>
        <time>2016-03-05T09:54:17.000Z</time>
        <extensions>
          <ns3:TrackPointExtension>
            <ns3:hr>69</ns3:hr>
            <ns3:cad>0</ns3:cad>
          </ns3:TrackPointExtension>
        </extensions>
      </trkpt>
      <trkpt lat="29.1509055532515048980712890625" lon="120.3096339292824268341064453125">
        <ele>136</ele>
        <time>2016-03-05T09:54:22.000Z</time>
        <extensions>
          <ns3:TrackPointExtension>
            <ns3:hr>73</ns3:hr>
            <ns3:cad>62</ns3:cad>
          </ns3:TrackPointExtension>
        </extensions>
      </trkpt>
      <trkpt lat="29.15088015608489513397216796875" lon="120.30971649102866649627685546875">
        <ele>135.1999969482421875</ele>
        <time>2016-03-05T09:54:27.000Z</time>
        <extensions>
          <ns3:TrackPointExtension>
            <ns3:hr>78</ns3:hr>
            <ns3:cad>67</ns3:cad>
          </ns3:TrackPointExtension>
        </extensions>
      </trkpt>
      <trkpt lat="29.15087713859975337982177734375" lon="120.30973635613918304443359375">
        <ele>135.1999969482421875</ele>
        <time>2016-03-05T09:54:28.000Z</time>
        <extensions>
          <ns3:TrackPointExtension>
            <ns3:hr>78</ns3:hr>
            <ns3:cad>65</ns3:cad>
          </ns3:TrackPointExtension>
        </extensions>
      </trkpt>
      <trkpt lat="29.1508696787059307098388671875" lon="120.3097891621291637420654296875">
        <ele>134.8000030517578125</ele>
        <time>2016-03-05T09:54:31.000Z</time>
        <extensions>
          <ns3:TrackPointExtension>
            <ns3:hr>78</ns3:hr>
            <ns3:cad>65</ns3:cad>
          </ns3:TrackPointExtension>
        </extensions>
      </trkpt>
      <trkpt lat="29.15086657740175724029541015625" lon="120.30980802141129970550537109375">
        <ele>134.8000030517578125</ele>
        <time>2016-03-05T09:54:32.000Z</time>
        <extensions>
          <ns3:TrackPointExtension>
            <ns3:hr>82</ns3:hr>
            <ns3:cad>65</ns3:cad>
          </ns3:TrackPointExtension>
        </extensions>
      </trkpt>
      <trkpt lat="29.1508522443473339080810546875" lon="120.30990189872682094573974609375">
        <ele>135</ele>
        <time>2016-03-05T09:54:37.000Z</time>
        <extensions>
          <ns3:TrackPointExtension>
            <ns3:hr>85</ns3:hr>
            <ns3:cad>65</ns3:cad>
          </ns3:TrackPointExtension>
        </extensions>
      </trkpt>
      <trkpt lat="29.15084344334900379180908203125" lon="120.310015641152858734130859375">
        <ele>134.600006103515625</ele>
        <time>2016-03-05T09:54:43.000Z</time>
        <extensions>
          <ns3:TrackPointExtension>
            <ns3:hr>88</ns3:hr>
            <ns3:cad>67</ns3:cad>
          </ns3:TrackPointExtension>
        </extensions>
      </trkpt>
      <trkpt lat="29.150845706462860107421875" lon="120.31004254706203937530517578125">
        <ele>134.600006103515625</ele>
        <time>2016-03-05T09:54:44.000Z</time>
        <extensions>
          <ns3:TrackPointExtension>
            <ns3:hr>88</ns3:hr>
            <ns3:cad>67</ns3:cad>
          </ns3:TrackPointExtension>
        </extensions>
      </trkpt>
      <trkpt lat="29.1508693434298038482666015625" lon="120.31008428893983364105224609375">
        <ele>134.600006103515625</ele>
        <time>2016-03-05T09:54:46.000Z</time>
        <extensions>
          <ns3:TrackPointExtension>
            <ns3:hr>88</ns3:hr>
            <ns3:cad>67</ns3:cad>
          </ns3:TrackPointExtension>
        </extensions>
      </trkpt>
      <trkpt lat="29.1508606262505054473876953125" lon="120.3101968578994274139404296875">
        <ele>134.600006103515625</ele>
        <time>2016-03-05T09:54:52.000Z</time>
        <extensions>
          <ns3:TrackPointExtension>
            <ns3:hr>92</ns3:hr>
            <ns3:cad>67</ns3:cad>
          </ns3:TrackPointExtension>
        </extensions>
      </trkpt>
      <trkpt lat="29.1508123464882373809814453125" lon="120.31041034497320652008056640625">
        <ele>134.399993896484375</ele>
        <time>2016-03-05T09:55:01.000Z</time>
        <extensions>
          <ns3:TrackPointExtension>
            <ns3:hr>92</ns3:hr>
            <ns3:cad>68</ns3:cad>
          </ns3:TrackPointExtension>
        </extensions>
      </trkpt>
      <trkpt lat="29.15083623491227626800537109375" lon="120.310642607510089874267578125">
        <ele>135.1999969482421875</ele>
        <time>2016-03-05T09:55:14.000Z</time>
        <extensions>
          <ns3:TrackPointExtension>
            <ns3:hr>93</ns3:hr>
            <ns3:cad>68</ns3:cad>
          </ns3:TrackPointExtension>
        </extensions>
      </trkpt>
      <trkpt lat="29.150866828858852386474609375" lon="120.310757942497730255126953125">
        <ele>135.1999969482421875</ele>
        <time>2016-03-05T09:55:22.000Z</time>
        <extensions>
          <ns3:TrackPointExtension>
            <ns3:hr>94</ns3:hr>
            <ns3:cad>67</ns3:cad>
          </ns3:TrackPointExtension>
        </extensions>
      </trkpt>
      <trkpt lat="29.15098358877003192901611328125" lon="120.3109277598559856414794921875">
        <ele>133.399993896484375</ele>
        <time>2016-03-05T09:55:31.000Z</time>
        <extensions>
          <ns3:TrackPointExtension>
            <ns3:hr>95</ns3:hr>
            <ns3:cad>68</ns3:cad>
          </ns3:TrackPointExtension>
        </extensions>
      </trkpt>
      <trkpt lat="29.151108562946319580078125" lon="120.311085171997547149658203125">
        <ele>131.8000030517578125</ele>
        <time>2016-03-05T09:55:43.000Z</time>
        <extensions>
          <ns3:TrackPointExtension>
            <ns3:hr>96</ns3:hr>
            <ns3:cad>69</ns3:cad>
          </ns3:TrackPointExtension>
        </extensions>
      </trkpt>
      <trkpt lat="29.1511667333543300628662109375" lon="120.31115792691707611083984375">
        <ele>131.1999969482421875</ele>
        <time>2016-03-05T09:55:48.000Z</time>
        <extensions>
          <ns3:TrackPointExtension>
            <ns3:hr>99</ns3:hr>
            <ns3:cad>68</ns3:cad>
          </ns3:TrackPointExtension>
        </extensions>
      </trkpt>
      <trkpt lat="29.15117905475199222564697265625" lon="120.31117125414311885833740234375">
        <ele>131</ele>
        <time>2016-03-05T09:55:49.000Z</time>
        <extensions>
          <ns3:TrackPointExtension>
            <ns3:hr>105</ns3:hr>
            <ns3:cad>68</ns3:cad>
          </ns3:TrackPointExtension>
        </extensions>
      </trkpt>
      <trkpt lat="29.1512264125049114227294921875" lon="120.31121961772441864013671875">
        <ele>130.600006103515625</ele>
        <time>2016-03-05T09:55:53.000Z</time>
        <extensions>
          <ns3:TrackPointExtension>
            <ns3:hr>108</ns3:hr>
            <ns3:cad>67</ns3:cad>
          </ns3:TrackPointExtension>
        </extensions>
      </trkpt>
      <trkpt lat="29.1513494588434696197509765625" lon="120.3113823942840099334716796875">
        <ele>129.399993896484375</ele>
        <time>2016-03-05T09:56:04.000Z</time>
        <extensions>
          <ns3:TrackPointExtension>
            <ns3:hr>109</ns3:hr>
            <ns3:cad>66</ns3:cad>
          </ns3:TrackPointExtension>
        </extensions>
      </trkpt>
      <trkpt lat="29.151384495198726654052734375" lon="120.3114749304950237274169921875">
        <ele>128.8000030517578125</ele>
        <time>2016-03-05T09:56:09.000Z</time>
        <extensions>
          <ns3:TrackPointExtension>
            <ns3:hr>109</ns3:hr>
            <ns3:cad>66</ns3:cad>
          </ns3:TrackPointExtension>
        </extensions>
      </trkpt>
      <trkpt lat="29.15145699866116046905517578125" lon="120.3115952946245670318603515625">
        <ele>128</ele>
        <time>2016-03-05T09:56:17.000Z</time>
        <extensions>
          <ns3:TrackPointExtension>
            <ns3:hr>108</ns3:hr>
            <ns3:cad>65</ns3:cad>
          </ns3:TrackPointExtension>
        </extensions>
      </trkpt>
      <trkpt lat="29.151595719158649444580078125" lon="120.311749018728733062744140625">
        <ele>127.8000030517578125</ele>
        <time>2016-03-05T09:56:29.000Z</time>
        <extensions>
          <ns3:TrackPointExtension>
            <ns3:hr>108</ns3:hr>
            <ns3:cad>67</ns3:cad>
          </ns3:TrackPointExtension>
        </extensions>
      </trkpt>
      <trkpt lat="29.1516200266778469085693359375" lon="120.31179654411971569061279296875">
        <ele>127.8000030517578125</ele>
        <time>2016-03-05T09:56:31.000Z</time>
        <extensions>
          <ns3:TrackPointExtension>
            <ns3:hr>108</ns3:hr>
            <ns3:cad>66</ns3:cad>
          </ns3:TrackPointExtension>
        </extensions>
      </trkpt>
      <trkpt lat="29.15169127285480499267578125" lon="120.31183392740786075592041015625">
        <ele>128.1999969482421875</ele>
        <time>2016-03-05T09:56:37.000Z</time>
        <extensions>
          <ns3:TrackPointExtension>
            <ns3:hr>108</ns3:hr>
            <ns3:cad>66</ns3:cad>
          </ns3:TrackPointExtension>
        </extensions>
      </trkpt>
      <trkpt lat="29.15177978575229644775390625" lon="120.31192344613373279571533203125">
        <ele>129.1999969482421875</ele>
        <time>2016-03-05T09:56:44.000Z</time>
        <extensions>
          <ns3:TrackPointExtension>
            <ns3:hr>107</ns3:hr>
            <ns3:cad>67</ns3:cad>
          </ns3:TrackPointExtension>
        </extensions>
      </trkpt>
      <trkpt lat="29.15180166251957416534423828125" lon="120.31198815442621707916259765625">
        <ele>129.8000030517578125</ele>
        <time>2016-03-05T09:56:48.000Z</time>
        <extensions>
          <ns3:TrackPointExtension>
            <ns3:hr>107</ns3:hr>
            <ns3:cad>67</ns3:cad>
          </ns3:TrackPointExtension>
        </extensions>
      </trkpt>
      <trkpt lat="29.15189914405345916748046875" lon="120.31207926571369171142578125">
        <ele>130.1999969482421875</ele>
        <time>2016-03-05T09:56:57.000Z</time>
        <extensions>
          <ns3:TrackPointExtension>
            <ns3:hr>110</ns3:hr>
            <ns3:cad>65</ns3:cad>
          </ns3:TrackPointExtension>
        </extensions>
      </trkpt>
      <trkpt lat="29.15191414766013622283935546875" lon="120.3121015615761280059814453125">
        <ele>130.399993896484375</ele>
        <time>2016-03-05T09:56:59.000Z</time>
        <extensions>
          <ns3:TrackPointExtension>
            <ns3:hr>111</ns3:hr>
            <ns3:cad>65</ns3:cad>
          </ns3:TrackPointExtension>
        </extensions>
      </trkpt>
      <trkpt lat="29.1519066877663135528564453125" lon="120.3121605701744556427001953125">
        <ele>130.399993896484375</ele>
        <time>2016-03-05T09:57:03.000Z</time>
        <extensions>
          <ns3:TrackPointExtension>
            <ns3:hr>111</ns3:hr>
            <ns3:cad>65</ns3:cad>
          </ns3:TrackPointExtension>
        </extensions>
      </trkpt>
      <trkpt lat="29.15203920565545558929443359375" lon="120.3123013861477375030517578125">
        <ele>129</ele>
        <time>2016-03-05T09:57:14.000Z</time>
        <extensions>
          <ns3:TrackPointExtension>
            <ns3:hr>111</ns3:hr>
            <ns3:cad>65</ns3:cad>
          </ns3:TrackPointExtension>
        </extensions>
      </trkpt>
      <trkpt lat="29.15205529890954494476318359375" lon="120.312353856861591339111328125">
        <ele>128.600006103515625</ele>
        <time>2016-03-05T09:57:16.000Z</time>
        <extensions>
          <ns3:TrackPointExtension>
            <ns3:hr>112</ns3:hr>
            <ns3:cad>65</ns3:cad>
          </ns3:TrackPointExtension>
        </extensions>
      </trkpt>
      <trkpt lat="29.15210274048149585723876953125" lon="120.3124002926051616668701171875">
        <ele>128</ele>
        <time>2016-03-05T09:57:22.000Z</time>
        <extensions>
          <ns3:TrackPointExtension>
            <ns3:hr>112</ns3:hr>
            <ns3:cad>66</ns3:cad>
          </ns3:TrackPointExtension>
        </extensions>
      </trkpt>
      <trkpt lat="29.15220634080469608306884765625" lon="120.3125417791306972503662109375">
        <ele>126.59999847412109375</ele>
        <time>2016-03-05T09:57:34.000Z</time>
        <extensions>
          <ns3:TrackPointExtension>
            <ns3:hr>111</ns3:hr>
            <ns3:cad>65</ns3:cad>
          </ns3:TrackPointExtension>
        </extensions>
      </trkpt>
      <trkpt lat="29.15221723727881908416748046875" lon="120.31254521571099758148193359375">
        <ele>126.59999847412109375</ele>
        <time>2016-03-05T09:57:35.000Z</time>
        <extensions>
          <ns3:TrackPointExtension>
            <ns3:hr>110</ns3:hr>
            <ns3:cad>65</ns3:cad>
          </ns3:TrackPointExtension>
        </extensions>
      </trkpt>
    </trkseg>
  </trk>
</gpx>
